OBJECT_NAME,OBJECT_ID,EPOCH,MEAN_MOTION,ECCENTRICITY,INCLINATION,RA_OF_ASC_NODE,ARG_OF_PERICENTER,MEAN_ANOMALY,EPHEMERIS_TYPE,CLASSIFICATION_TYPE,NORAD_CAT_ID,ELEMENT_SET_NO,REV_AT_EPOCH,BSTAR,MEAN_MOTION_DOT,MEAN_MOTION_DDOT
ELEKTRO-L 3,2019-095A,2026-07-02T04:04:38.069184,1.00272472,.00016565,0.2944,81.9391,6.1312,329.2871,0,U,44903,999,2385,0,-.86E-6,0
SHIJIAN-20 (SJ-20),2019-097A,2026-06-30T21:30:38.729376,1.00275341,.0015647,4.9515,74.9003,56.2439,155.2747,0,U,44910,999,2383,0,.142E-5,0
TJS-5,2020-002A,2026-07-01T05:58:58.071072,1.00266714,.0008455,0.0289,52.0135,0.3338,64.1918,0,U,44978,999,2385,0,-.331E-5,0
GSAT-30,2020-005A,2026-07-02T04:06:37.878336,1.00271739,.00036582,0.0140,74.3675,13.7537,336.7827,0,U,45026,999,2365,0,-.155E-5,0
EUTELSAT KONNECT,2020-005B,2026-07-02T05:27:43.653312,1.00270654,.00020884,0.0689,93.4417,127.5741,148.4059,0,U,45027,999,2448,0,.6E-6,0
JCSAT-17,2020-013A,2026-07-01T08:47:38.689728,1.00270509,.00031472,5.3917,356.9967,108.2977,82.0469,0,U,45245,999,2337,0,-.303E-5,0
GEO-KOMPSAT-2B,2020-013B,2026-07-02T06:02:13.102656,1.00265886,.00002457,0.0181,249.4127,310.5503,299.1376,0,U,45246,999,2343,0,0,0
BEIDOU-3 G2,2020-017A,2026-07-02T04:05:52.950336,1.00271660,.00025844,2.8933,47.5621,44.6846,329.5323,0,U,45344,999,2341,0,-.132E-5,0
AEHF-6 (USA 298),2020-022B,2026-07-02T00:56:41.848800,1.00266282,.00423763,2.5174,301.3373,17.0308,113.5269,0,U,45465,999,2316,0,-.287E-5,0
BEIDOU-3 G3,2020-040A,2026-07-02T05:57:10.828800,1.00271877,.00024748,2.4826,67.4785,332.9160,79.7571,0,U,45807,999,2222,0,-.344E-5,0
APSTAR-6D,2020-045A,2026-06-29T16:27:38.706624,1.00270673,.00022596,0.0501,93.2652,0.9714,204.4597,0,U,45863,999,2198,0,-.307E-5,0
KOREASAT 116,2020-048A,2026-07-02T05:58:48.173952,1.00270348,.00014116,0.0240,298.6658,197.4069,350.1340,0,U,45920,999,2179,0,-.351E-5,0
EXPRESS 103,2020-053A,2026-07-01T18:56:43.665792,1.00273136,.00004726,0.0193,285.1671,123.1491,252.2070,0,U,45985,999,2179,0,-.27E-5,0
EXPRESS 80,2020-053B,2026-07-01T23:59:53.062080,1.00269657,.00019628,0.0189,13.6930,193.4780,152.8187,0,U,45986,999,2177,0,0,0
BSAT-4B,2020-056A,2026-07-02T02:31:35.078304,1.00272099,.00043455,0.0496,151.1741,330.0703,306.6294,0,U,46112,999,2153,0,-.339E-5,0
MEV-2,2020-056B,2026-07-02T02:00:00.605376,1.00271302,.00003219,0.0388,265.6144,255.3379,148.1780,0,U,46113,999,8083,0,-.1E-7,0
GALAXY 30 (G-30),2020-056C,2026-07-01T23:42:04.565376,1.00273016,.0002214,0.0143,48.5564,51.2107,50.7794,0,U,46114,999,2144,0,.47E-6,0
GAOFEN-13 01,2020-071A,2026-06-30T16:43:38.877600,1.00274904,.00447061,0.4313,86.4106,119.6201,81.9069,0,U,46610,999,2105,0,-.352E-5,0
TIANTONG-1 2,2020-082A,2026-07-01T00:56:11.456736,1.00270200,.00017103,0.7736,329.4791,127.3924,321.2092,0,U,46916,999,2079,0,-.344E-5,0
LUCAS (JDRS-1),2020-089A,2026-07-02T02:26:13.092288,1.00269607,.00023787,0.0596,267.5481,171.6895,328.2410,0,U,47202,999,2056,0,-.225E-5,0
SXM-7,2020-096A,2026-07-01T15:20:02.664672,1.00273368,.00041178,0.0238,93.3861,25.1028,306.0557,0,U,47240,999,758,0,-.195E-5,0
CMS-01,2020-099A,2026-07-02T02:23:58.308288,1.00271586,.00030515,0.0436,92.5434,181.2069,125.3856,0,U,47256,999,2034,0,-.154E-5,0
TURKSAT 5A,2021-001A,2026-07-01T20:39:02.320992,1.00272372,.0000305,0.0173,62.9754,63.3477,134.2769,0,U,47306,999,2011,0,.165E-5,0
TIANTONG-1 3,2021-003A,2026-07-02T04:06:15.414336,1.00273243,.00034452,1.7444,340.2282,124.1060,318.9829,0,U,47321,999,2011,0,-.143E-5,0
TJS-6,2021-010A,2026-07-02T06:16:34.226400,1.00270299,.00032695,0.2136,262.8921,226.6604,63.3728,0,U,47613,999,1995,0,.53E-6,0
SBIRS GEO-5 (USA 315),2021-042A,2026-07-01T23:01:41.243232,1.00271838,.00018761,5.0853,329.2274,137.4025,252.6128,0,U,48618,999,1892,0,-.255E-5,0
FENGYUN 4B,2021-047A,2026-07-02T05:55:33.485376,1.00270137,.00057633,0.1884,79.0467,278.1906,116.6726,0,U,48808,999,1872,0,-.32E-5,0
SXM-8,2021-049A,2026-07-01T10:12:10.654848,1.00271170,.00056235,0.0143,17.8931,17.2303,312.2526,0,U,48838,999,1872,0,-.195E-5,0
TIANLIAN 1-05,2021-063A,2026-07-01T15:49:10.687872,1.00274453,.00008486,1.6292,80.5942,30.6362,62.6248,0,U,49011,999,1822,0,.118E-5,0
STAR ONE D2,2021-069A,2026-07-01T11:59:08.988576,1.00268604,.0002226,0.0164,21.2841,105.4251,262.5322,0,U,49055,999,1808,0,0,0
EUTELSAT QUANTUM,2021-069B,2026-07-02T03:56:38.835168,1.00272517,.00026444,0.0099,20.6609,80.3764,286.0227,0,U,49056,999,1807,0,.136E-5,0
ZHONGXING-2E,2021-071A,2026-07-02T02:28:20.388864,1.00274387,.0001887,0.0397,118.9845,20.2499,276.0524,0,U,49062,999,1818,0,-.281E-5,0
