ELEKTRO-L 3             
1 44903U 19095A   26183.16988506 -.00000086  00000+0  00000+0 0  9990
2 44903   0.2944  81.9391 0001656   6.1312 329.2871  1.00272472 23858
SHIJIAN-20 (SJ-20)      
1 44910U 19097A   26181.89628159  .00000142  00000+0  00000+0 0  9995
2 44910   4.9515  74.9003 0015647  56.2439 155.2747  1.00275341 23839
TJS-5                   
1 44978U 20002A   26182.24928323 -.00000331  00000+0  00000+0 0  9994
2 44978   0.0289  52.0135 0008455   0.3338  64.1918  1.00266714 23852
GSAT-30                 
1 45026U 20005A   26183.17127174 -.00000155  00000+0  00000+0 0  9994
2 45026   0.0140  74.3675 0003658  13.7537 336.7827  1.00271739 23656
EUTELSAT KONNECT        
1 45027U 20005B   26183.22758858  .00000060  00000+0  00000+0 0  9994
2 45027   0.0689  93.4417 0002088 127.5741 148.4059  1.00270654 24480
JCSAT-17                
1 45245U 20013A   26182.36642002 -.00000303  00000+0  00000+0 0  9993
2 45245   5.3917 356.9967 0003147 108.2977  82.0469  1.00270509 23379
GEO-KOMPSAT-2B          
1 45246U 20013B   26183.25154054  .00000000  00000+0  00000+0 0  9991
2 45246   0.0181 249.4127 0000245 310.5503 299.1376  1.00265886 23435
BEIDOU-3 G2             
1 45344U 20017A   26183.17075174 -.00000132  00000+0  00000+0 0  9997
2 45344   2.8933  47.5621 0002584  44.6846 329.5323  1.00271660 23413
AEHF-6 (USA 298)        
1 45465U 20022B   26183.03937325 -.00000287  00000+0  00000+0 0  9998
2 45465   2.5174 301.3373 0042376  17.0308 113.5269  1.00266282 23162
BEIDOU-3 G3             
1 45807U 20040A   26183.24804200 -.00000344  00000+0  00000+0 0  9990
2 45807   2.4826  67.4785 0002474 332.9160  79.7571  1.00271877 22223
APSTAR-6D               
1 45863U 20045A   26180.68586466 -.00000307  00000+0  00000+0 0  9992
2 45863   0.0501  93.2652 0002259   0.9714 204.4597  1.00270673 21987
KOREASAT 116            
1 45920U 20048A   26183.24916868 -.00000351  00000+0  00000+0 0  9996
2 45920   0.0240 298.6658 0001411 197.4069 350.1340  1.00270348 21795
EXPRESS 103             
1 45985U 20053A   26182.78939428 -.00000270  00000+0  00000+0 0  9998
2 45985   0.0193 285.1671 0000472 123.1491 252.2070  1.00273136 21790
EXPRESS 80              
1 45986U 20053B   26182.99991970  .00000000  00000+0  00000+0 0  9992
2 45986   0.0189  13.6930 0001962 193.4780 152.8187  1.00269657 21779
BSAT-4B                 
1 46112U 20056A   26183.10526711 -.00000339  00000+0  00000+0 0  9994
2 46112   0.0496 151.1741 0004345 330.0703 306.6294  1.00272099 21538
MEV-2                   
1 46113U 20056B   26183.08334034 -.00000001  00000+0  00000+0 0  9993
2 46113   0.0388 265.6144 0000321 255.3379 148.1780  1.00271302 80838
GALAXY 30 (G-30)        
1 46114U 20056C   26182.98755284  .00000047  00000+0  00000+0 0  9995
2 46114   0.0143  48.5564 0002214  51.2107  50.7794  1.00273016 21446
GAOFEN-13 01            
1 46610U 20071A   26181.69697775 -.00000352  00000+0  00000+0 0  9990
2 46610   0.4313  86.4106 0044706 119.6201  81.9069  1.00274904 21054
TIANTONG-1 2            
1 46916U 20082A   26182.03902149 -.00000344  00000+0  00000+0 0  9995
2 46916   0.7736 329.4791 0001710 127.3924 321.2092  1.00270200 20792
LUCAS (JDRS-1)          
1 47202U 20089A   26183.10154042 -.00000225  00000+0  00000+0 0  9999
2 47202   0.0596 267.5481 0002378 171.6895 328.2410  1.00269607 20561
SXM-7                   
1 47240U 20096A   26182.63891973 -.00000195  00000+0  00000+0 0  9993
2 47240   0.0238  93.3861 0004117  25.1028 306.0557  1.00273368  7589
CMS-01                  
1 47256U 20099A   26183.09998042 -.00000154  00000+0  00000+0 0  9994
2 47256   0.0436  92.5434 0003051 181.2069 125.3856  1.00271586 20341
TURKSAT 5A              
1 47306U 21001A   26182.86044353  .00000165  00000+0  00000+0 0  9996
2 47306   0.0173  62.9754 0000305  63.3477 134.2769  1.00272372 20114
TIANTONG-1 3            
1 47321U 21003A   26183.17101174 -.00000143  00000+0  00000+0 0  9992
2 47321   1.7444 340.2282 0003445 124.1060 318.9829  1.00273243 20116
TJS-6                   
1 47613U 21010A   26183.26150725  .00000053  00000+0  00000+0 0  9999
2 47613   0.2136 262.8921 0003269 226.6604  63.3728  1.00270299 19954
SBIRS GEO-5 (USA 315)   
1 48618U 21042A   26182.95950513 -.00000255  00000+0  00000+0 0  9993
2 48618   5.0853 329.2274 0001876 137.4025 252.6128  1.00271838 18929
FENGYUN 4B              
1 48808U 21047A   26183.24691534 -.00000320  00000+0  00000+0 0  9990
2 48808   0.1884  79.0467 0005763 278.1906 116.6726  1.00270137 18726
SXM-8                   
1 48838U 21049A   26182.42512332 -.00000195  00000+0  00000+0 0  9992
2 48838   0.0143  17.8931 0005623  17.2303 312.2526  1.00271170 18720
TIANLIAN 1-05           
1 49011U 21063A   26182.65915148  .00000118  00000+0  00000+0 0  9993
2 49011   1.6292  80.5942 0000848  30.6362  62.6248  1.00274453 18222
STAR ONE D2             
1 49055U 21069A   26182.49940959  .00000000  00000+0  00000+0 0  9997
2 49055   0.0164  21.2841 0002226 105.4251 262.5322  1.00268604 18080
EUTELSAT QUANTUM        
1 49056U 21069B   26183.16433837  .00000136  00000+0  00000+0 0  9995
2 49056   0.0099  20.6609 0002644  80.3764 286.0227  1.00272517 18079
ZHONGXING-2E            
1 49062U 21071A   26183.10301376 -.00000281  00000+0  00000+0 0  9993
2 49062   0.0397 118.9845 0001887  20.2499 276.0524  1.00274387 18184
